NORAD_CAT_ID,OBJECT_NAME,OBJECT_TYPE,EPOCH,MEAN_MOTION,ECCENTRICITY,INCLINATION,RA_OF_ASC_NODE,ARG_OF_PERICENTER,MEAN_ANOMALY,BSTAR,MEAN_MOTION_DOT,MEAN_MOTION_DDOT,TLE_LINE0,TLE_LINE1,TLE_LINE2,SEMIMAJOR_AXIS,PERIOD,APOGEE,PERIGEE,DECAYED
52119.0,STARLINK-3558,PAYLOAD,2022-03-22 16:00:00,15.84249322,0.0005131,53.2172,127.117,343.9487,67.2602,-0.0042309,-0.00887503,0.0,0 STARLINK-3558,1 52119U 22029AH  22081.66667824 -.00887503  00000-0 -42309-2 0  9994,2 52119  53.2172 127.1170 0005131 343.9487  67.2602 15.84249322  1809,6696.576,90.895,321.877,315.005,0.0
52119.0,STARLINK-3558,PAYLOAD,2022-03-23 04:00:00,15.83300801,9.63e-05,53.2177,124.6022,73.7993,309.8493,-0.0043902,-0.00878705,0.0,0 STARLINK-3558,1 52119U 22029AH  22082.16667824 -.00878705  00000-0 -43902-2 0  9994,2 52119  53.2177 124.6022 0000963  73.7993 309.8493 15.83300801  1879,6699.251,90.949,321.761,320.47,0.0
52119.0,STARLINK-3558,PAYLOAD,2022-03-23 14:00:01,15.82510682,0.00011,53.2172,122.5125,85.1605,154.2182,-0.0045231,-0.00872625,0.0,0 STARLINK-3558,1 52119U 22029AH  22082.58334491 -.00872625  00000-0 -45231-2 0  9993,2 52119  53.2172 122.5125 0001100  85.1605 154.2182 15.82510682  1467,6701.48,90.995,324.082,322.608,0.0
52119.0,STARLINK-3558,PAYLOAD,2022-03-23 20:00:01,15.82044335,0.0001131,53.2175,121.2569,77.0724,147.1767,-0.0046796999999999,-0.00882191,0.0,0 STARLINK-3558,1 52119U 22029AH  22082.83334491 -.00882191  00000-0 -46797-2 0  9998,2 52119  53.2175 121.2569 0001131  77.0724 147.1767 15.82044335  1988,6702.797,91.021,325.42,323.904,0.0
52119.0,STARLINK-3558,PAYLOAD,2022-03-23 22:00:00,15.81882787,9.38e-05,53.2174,120.8387,78.7112,260.4028,-0.0046755,-0.00875361,0.0,0 STARLINK-3558,1 52119U 22029AH  22082.91667824 -.00875361  00000-0 -46755-2 0  9991,2 52119  53.2174 120.8387 0000938  78.7112 260.4028 15.81882787  1511,6703.253000000002,91.031,325.747,324.49,0.0
52119.0,STARLINK-3558,PAYLOAD,2022-03-24 14:00:01,15.80623084,0.0001102,53.2172,117.502,76.8731,99.4384,-0.0049406,-0.00872486,0.0,0 STARLINK-3558,1 52119U 22029AH  22083.58334491 -.00872486  00000-0 -49406-2 0  9997,2 52119  53.2172 117.5020 0001102  76.8731  99.4384 15.80623084  1625,6706.814,91.103,329.4190000000001,327.94,0.0
52119.0,STARLINK-3558,PAYLOAD,2022-03-24 22:00:00,15.79995003,0.0001102,53.2174,115.8329,67.8869,205.8907,-0.0050996,-0.00874552,0.0,0 STARLINK-3558,1 52119U 22029AH  22083.91667824 -.00874552  00000-0 -50996-2 0  9995,2 52119  53.2174 115.8329 0001102  67.8869 205.8907 15.79995003  2156,6708.592,91.14,331.196,329.717,0.0
52119.0,STARLINK-3558,PAYLOAD,2022-03-25 14:00:01,15.78737174,0.0001067,53.2171,112.5057,69.0928,37.3449,-0.0054056,-0.00875025,0.0,0 STARLINK-3558,1 52119U 22029AH  22084.58334491 -.00875025  00000-0 -54056-2 0  9997,2 52119  53.2171 112.5057 0001067  69.0928  37.3449 15.78737174  1784,6712.155,91.212,334.736,333.30300000000005,0.0
52119.0,STARLINK-3558,PAYLOAD,2022-03-25 20:00:01,15.78264675,9.92e-05,53.2175,111.2572,81.686,6.2217,-0.0055172,-0.00874177,0.0,0 STARLINK-3558,1 52119U 22029AH  22084.83334491 -.00874177  00000-0 -55172-2 0  9992,2 52119  53.2175 111.2572 0000992  81.6860   6.2217 15.78264675  2305,6713.494000000002,91.239,336.025,334.6930000000001,0.0
52119.0,STARLINK-3558,PAYLOAD,2022-03-25 22:00:01,15.78106931,0.0001117,53.2174,110.8411,83.5642,118.1375,-0.0055502,-0.0087327999999999,0.0,0 STARLINK-3558,1 52119U 22029AH  22084.91668981 -.00873280  00000-0 -55502-2 0  9996,2 52119  53.2174 110.8411 0001117  83.5642 118.1375 15.78106931  1835,6713.941999999999,91.249,336.557,335.057,0.0
52119.0,STARLINK-3558,PAYLOAD,2022-03-26 12:00:00,15.77004339,0.00011,53.2176,107.9382,82.8338,193.5755,-0.0058163,-0.00871046,0.0,0 STARLINK-3558,1 52119U 22029AH  22085.50001157 -.00871046  00000-0 -58163-2 0  9992,2 52119  53.2176 107.9382 0001100  82.8338 193.5755 15.77004339  2408,6717.071,91.312,339.675,338.19699999999995,0.0
52119.0,STARLINK-3558,PAYLOAD,2022-03-26 14:00:01,15.76849814,9.57e-05,53.2171,107.5231,78.3528,311.4062,-0.0058842,-0.00874705,0.0,0 STARLINK-3558,1 52119U 22029AH  22085.58334491 -.00874705  00000-0 -58842-2 0  9999,2 52119  53.2171 107.5231 0000957  78.3528 311.4062 15.76849814  1946,6717.509,91.321,340.017,338.732,0.0
52119.0,STARLINK-3558,PAYLOAD,2022-03-26 22:00:00,15.7621937,0.0001247,53.2172,105.8635,52.8045,69.8838,-0.006043,-0.00873622,0.0,0 STARLINK-3558,1 52119U 22029AH  22085.91667824 -.00873622  00000-0 -60430-2 0  9998,2 52119  53.2172 105.8635 0001247  52.8045  69.8838 15.76219370  1998,6719.301,91.358,342.0030000000001,340.3280000000001,0.0
52119.0,STARLINK-3558,PAYLOAD,2022-03-27 04:00:00,15.75748473,0.0001345,53.2175,104.6221,44.861,57.0261,-0.0061828999999999,-0.00875233,0.0,0 STARLINK-3558,1 52119U 22029AH  22086.16667824 -.00875233  00000-0 -61829-2 0  9999,2 52119  53.2175 104.6221 0001345  44.8610  57.0261 15.75748473  2515,6720.639,91.385,343.408,341.6,0.0
52119.0,STARLINK-3558,PAYLOAD,2022-03-27 14:00:01,15.74962326,0.0001011,53.2172,102.5547,84.1413,222.1321,-0.0063971,-0.00874647,0.0,0 STARLINK-3558,1 52119U 22029AH  22086.58334491 -.00874647  00000-0 -63971-2 0  9994,2 52119  53.2172 102.5547 0001011  84.1413 222.1321 15.74962326  2109,6722.875,91.431,345.42,344.061,0.0
52119.0,STARLINK-3558,PAYLOAD,2022-03-27 22:00:01,15.74331667,0.0001069,53.2173,100.8995,58.4855,338.5152,-0.0065732,-0.00874295,0.0,0 STARLINK-3558,1 52119U 22029AH  22086.91668981 -.00874295  00000-0 -65732-2 0  9991,2 52119  53.2173 100.8995 0001069  58.4855 338.5152 15.74331667  2152,6724.670999999999,91.467,347.255,345.81699999999995,0.0
52119.0,STARLINK-3558,PAYLOAD,2022-03-28 04:00:00,15.73797496,0.0001136,53.2178,99.6617,55.2191,319.2255,-0.0054805,-0.00725185,0.0,0 STARLINK-3558,1 52119U 22029AH  22087.16667824 -.00725185  00000-0 -54805-2 0  9996,2 52119  53.2178  99.6617 0001136  55.2191 319.2255 15.73797496  2667,6726.191999999999,91.498,348.821,347.293,0.0
52119.0,STARLINK-3558,PAYLOAD,2022-03-28 14:00:01,15.73206798,0.0001213,53.2171,97.5997,64.5259,151.5433,-3.5171e-05,-5.554e-05,0.0,0 STARLINK-3558,1 52119U 22029AH  22087.58335648 -.00005554  00000-0 -35171-4 0  9996,2 52119  53.2171  97.5997 0001213  64.5259 151.5433 15.73206798  2735,6727.876,91.533,350.557,348.925,0.0
52119.0,STARLINK-3558,PAYLOAD,2022-03-28 20:00:01,15.73215795,0.0001305,53.2167,96.3616,67.7814,125.0493,0.00052832,0.00074234,0.0,0 STARLINK-3558,1 52119U 22029AH  22087.83334491  .00074234  00000-0  52832-3 0  9990,2 52119  53.2167  96.3616 0001305  67.7814 125.0493 15.73215795  2772,6727.85,91.532,350.593,348.837,0.0
52119.0,STARLINK-3558,PAYLOAD,2022-03-28 22:00:00,15.73252184,0.0001205,53.2166,95.9483,66.6791,238.3885,-2.2925e-05,-3.843e-05,0.0,0 STARLINK-3558,1 52119U 22029AH  22087.91667824 -.00003843  00000-0 -22925-4 0  9999,2 52119  53.2166  95.9483 0001205  66.6791 238.3885 15.73252184  2315,6727.746,91.53,350.422,348.801,0.0
52119.0,STARLINK-3558,PAYLOAD,2022-03-29 04:00:00,15.73290659,0.0001255,53.2163,94.7127,68.935,212.8793,-0.00071229,-0.00099793,0.0,0 STARLINK-3558,1 52119U 22029AH  22088.16667824 -.00099793  00000-0 -71229-3 0  9996,2 52119  53.2163  94.7127 0001255  68.9350 212.8793 15.73290659  2825,6727.637,91.528,350.346,348.657,0.0
52119.0,STARLINK-3558,PAYLOAD,2022-03-29 12:00:00,15.73194658,0.0001190999999999,53.216,93.0643,55.6679,315.1011,-0.00039466,-0.00055629,0.0,0 STARLINK-3558,1 52119U 22029AH  22088.50001157 -.00055629  00000-0 -39466-3 0  9992,2 52119  53.2160  93.0643 0001191  55.6679 315.1011 15.73194658  2870,6727.91,91.533,350.577,348.974,0.0
52119.0,STARLINK-3558,PAYLOAD,2022-03-29 14:00:01,15.73193021,0.0001198,53.2161,92.6513,57.654,65.3396,-0.00056884,-0.00079676,0.0,0 STARLINK-3558,1 52119U 22029AH  22088.58334491 -.00079676  00000-0 -56884-3 0  9991,2 52119  53.2161  92.6513 0001198  57.6540  65.3396 15.73193021  2411,6727.915,91.534,350.586,348.974,0.0
52119.0,STARLINK-3558,PAYLOAD,2022-03-29 22:00:00,15.73124212,0.0001221,53.2164,90.9998,72.6959,139.1898,0.00079025,0.00111404,0.0,0 STARLINK-3558,1 52119U 22029AH  22088.91667824  .00111404  00000-0  79025-3 0  9993,2 52119  53.2164  90.9998 0001221  72.6959 139.1898 15.73124212  2479,6728.111,91.538,350.798,349.155,0.0
52119.0,STARLINK-3558,PAYLOAD,2022-03-30 04:00:00,15.73197723,0.0001296999999999,53.2167,89.764,68.8876,119.6497,0.00024225,0.0003351,0.0,0 STARLINK-3558,1 52119U 22029AH  22089.16667824  .00033510  00000-0  24225-3 0  9994,2 52119  53.2167  89.7640 0001297  68.8876 119.6497 15.73197723  2981,6727.901999999999,91.533,350.639,348.894,0.0
52119.0,STARLINK-3558,PAYLOAD,2022-03-30 14:00:01,15.73216952,0.0001186,53.216,87.7023,61.4062,328.3719,-9.7171e-05,-0.00014244,0.0,0 STARLINK-3558,1 52119U 22029AH  22089.58335648 -.00014244  00000-0 -97171-4 0  9992,2 52119  53.2160  87.7023 0001186  61.4062 328.3719 15.73216952  2577,6727.847,91.532,350.51,348.914,0.0
52119.0,STARLINK-3558,PAYLOAD,2022-03-30 20:00:01,15.73183917,0.0001068,53.2161,86.4637,70.9161,295.5103,0.00065903,0.00092833,0.0,0 STARLINK-3558,1 52119U 22029AH  22089.83334491  .00092833  00000-0  65903-3 0  9990,2 52119  53.2161  86.4637 0001068  70.9161 295.5103 15.73183917  3082,6727.941,91.534,350.525,349.087,0.0
52119.0,STARLINK-3558,PAYLOAD,2022-03-30 22:00:00,15.73221279,0.0001125,53.2161,86.0512,75.3423,43.3095,0.00021902,0.00030256,0.0,0 STARLINK-3558,1 52119U 22029AH  22089.91667824  .00030256  00000-0  21902-3 0  9990,2 52119  53.2161  86.0512 0001125  75.3423  43.3095 15.73221279  2637,6727.835,91.532,350.456,348.9430000000001,0.0
52119.0,STARLINK-3558,PAYLOAD,2022-03-31 04:00:00,15.73261466,0.0001203,53.2163,84.8154,70.8943,24.4845,-0.00056574,-0.00079479,0.0,0 STARLINK-3558,1 52119U 22029AH  22090.16667824 -.00079479  00000-0 -56574-3 0  9994,2 52119  53.2163  84.8154 0001203  70.8943  24.4845 15.73261466  3143,6727.72,91.53,350.394,348.776,0.0
